S-NET A                 
1 43188U 18014J   26158.69614310  .00006167  00000+0  31878-3 0  9999
2 43188  97.5380  63.7393 0010161  54.8789 305.3395 15.16591754457322
S-NET C                 
1 43189U 18014K   26158.71231015  .00005491  00000+0  28453-3 0  9994
2 43189  97.5397  63.8288 0011385  47.9234 312.2965 15.16546137455875
GOES 17                 
1 43226U 18022A   26159.04078934 -.00000167  00000+0  00000+0 0  9991
2 43226   0.9130  85.8739 0000634   8.7123  87.0479  1.00271990 30339
LKW-4                   
1 43236U 18025A   26159.04598411  .00039695  00000+0  46300-3 0  9996
2 43236  97.6346 329.2090 0001884 342.7424  17.3768 15.61551797458609
ZHUHAI-1 OVS-02         
1 43440U 18040B   26159.11065331  .00008213  00000+0  33264-3 0  9995
2 43440  97.0396 176.8792 0001632 309.1454  50.9640 15.24905550451335
ZHUHAI-1 OHS-02         
1 43441U 18040C   26159.16637858  .00008793  00000+0  34682-3 0  9998
2 43441  97.0379 183.8622 0007349 258.9164 101.1249 15.25752176112903
GAOFEN-6                
1 43484U 18048A   26159.19401209  .00000513  00000+0  80430-4 0  9990
2 43484  97.7757 222.2079 0011332 197.8547 162.2267 14.76621942432065
LUOJIA-1 01             
1 43485U 18048B   26159.15889159  .00001894  00000+0  21611-3 0  9999
2 43485  97.8094 237.4914 0009785 144.1973 215.9901 14.87250794432879
PAKTES 1A               
1 43529U 18056A   26159.19391353  .00002174  00000+0  18364-3 0  9998
2 43529  98.1305 315.2969 0022323 134.2112 226.0947 14.99065160430572
PRSS-1                  
1 43530U 18056B   26159.14238402  .00001004  00000+0  13312-3 0  9999
2 43530  97.7816 227.2622 0001753  77.1845 282.9564 14.81974933427093
HAIYANG-1C              
1 43609U 18068A   26159.17539169  .00000157  00000+0  71332-4 0  9991
2 43609  98.5187 231.6135 0011930 118.2668 241.9722 14.34176504405796
SSTL S1-4               
1 43618U 18071A   26159.19343108  .00001585  00000+0  14556-3 0  9993
2 43618  97.5033  31.1815 0001371 106.3142 253.8231 14.96183183421598
HAIYANG-2B              
1 43655U 18081A   26159.16819994 -.00000201  00000+0 -15314-3 0  9992
2 43655  99.3289 168.0609 0000802  16.9253 343.1926 13.79307946383686
CFOSAT                  
1 43662U 18083A   26159.18514911  .00003230  00000+0  17004-3 0  9996
2 43662  97.3608 163.9816 0002398  97.1856 262.9650 15.16318596421077
TEN-KOH                 
1 43677U 18084G   26159.06906331  .00002899  00000+0  22072-3 0  9992
2 43677  98.0785 351.0479 0010504 142.9937 217.2013 15.02906349414790
DIWATA-2B               
1 43678U 18084H   26159.16689957  .00002336  00000+0  19081-3 0  9998
2 43678  98.1169 354.9843 0011994 200.0320 160.0433 15.00408860414863
STARS-AO                
1 43679U 18084J   26159.10290640  .00006497  00000+0  33294-3 0  9994
2 43679  98.0518  12.5148 0002233 157.5750 202.5579 15.16954130416098
AUTCUBE 2               
1 43681U 18084K   26158.55586933  .00004097  00000+0  25607-3 0  9991
2 43681  98.0723   4.2201 0010504  78.1987 282.0418 15.10026627415478
METOP-C                 
1 43689U 18087A   26159.12883968  .00000102  00000+0  66666-4 0  9998
2 43689  98.6646 218.8977 0001422 139.5747 220.5536 14.21509778393549
ES'HAIL 2               
1 43700U 18090A   26158.90104545  .00000159  00000+0  00000+0 0  9995
2 43700   0.0153  51.7811 0001905  61.1895 133.5104  1.00273859 27587
MOHAMMED VI-B           
1 43717U 18095A   26159.16735317  .00001010  00000+0  15016-3 0  9998
2 43717  97.9551 231.6164 0001209  89.9268 270.2080 14.77107275406850
HYSIS                   
1 43719U 18096A   26159.14380454  .00001358  00000+0  19233-3 0  9997
2 43719  97.9836 225.9623 0001657 112.5871 247.5515 14.78677968406081
COSMOS 2530 (RODNIK-S *)
1 43751U 18097A   26159.20003831 -.00000031  00000+0 -29637-3 0  9990
2 43751  82.5142 227.8577 0020511  58.4742 301.8337 12.42881001341179
COSMOS 2531 (RODNIK-S *)
1 43752U 18097B   26159.22253606  .00000024  00000+0  99795-4 0  9993
2 43752  82.5188 228.8991 0017915  76.7732 283.5345 12.42912796341190
COSMOS 2532 (RODNIK-S *)
1 43753U 18097C   26159.17029453  .00000113  00000+0  74473-3 0  9993
2 43753  82.5131 227.7216 0019309  78.7337 281.5911 12.42909994341158
MINXSS-2                
1 43758U 18099A   26159.16316227  .00029115  00000+0  59095-3 0  9993
2 43758  97.4534 235.1876 0006102 294.2363  65.8249 15.46295313412731
SIRION PATHFINDER-2     
1 43759U 18099B   26159.06410818  .00005499  00000+0  30221-3 0  9993
2 43759  97.4257 208.3390 0007877 341.7112  18.3836 15.14472143411240
AISTECHSAT 2            
1 43768U 18099L   26159.10876552  .00005716  00000+0  30643-3 0  9999
2 43768  97.4296 207.3418 0003939 351.5591   8.5575 15.15359496410907
FOX-1CLIFF (AO-95)      
1 43770U 18099N   26159.16339021  .00009417  00000+0  36286-3 0  9994
2 43770  97.4386 219.4444 0008916  30.0616 330.1133 15.26519996411843
